{"type":"FeatureCollection","features":[{"type":"Feature","geometry":{"type":"MultiPolygon","coordinates":[[[[-119.99987,41.18397],[-119.99829,41.61882],[-119.99923,41.99494],[-120.32639,41.99259],[-120.79812,41.99395],[-120.99008,41.99306],[-121.16848,41.99718],[-121.34491,41.99621],[-122.37805,42.0095],[-122.70279,42.00422],[-123.044,42.00308],[-123.14574,42.00876],[-123.18392,42.00579],[-123.34695,41.99928],[-123.5642,42.00071],[-123.62402,41.99977],[-123.65721,41.99509],[-123.72817,41.99706],[-123.81091,41.99516],[-124.32883,41.99833],[-124.30699,41.99291],[-124.30118,41.98298],[-124.28858,41.96956],[-124.28477,41.95683],[-124.28993,41.94543],[-124.29194,41.9285],[-124.28994,41.92006],[-124.28569,41.91292],[-124.27612,41.90305],[-124.28073,41.87484],[-124.27965,41.87484],[-124.28503,41.85949],[-124.298,41.86067],[-124.31194,41.85879],[-124.33298,41.877],[-124.34765,41.88315],[-124.3652,41.88657],[-124.40124,41.88559],[-124.41132,41.88206],[-124.42611,41.86878],[-124.43502,41.85651],[-124.44071,41.83874],[-124.43891,41.8245],[-124.43503,41.81658],[-124.42918,41.80973],[-124.41753,41.80002],[-124.41076,41.78831],[-124.39205,41.77238],[-124.3762,41.76463],[-124.36919,41.76341],[-124.33061,41.73379],[-124.3003,41.72414],[-124.27806,41.70967],[-124.26242,41.70186],[-124.24947,41.69696],[-124.23686,41.69464],[-124.2226,41.68527],[-124.21171,41.68119],[-124.20855,41.67382],[-124.21178,41.66191],[-124.21049,41.64946],[-124.21142,41.64169],[-124.20978,41.6352],[-124.20134,41.6194],[-124.19011,41.60819],[-124.19053,41.59874],[-124.18919,41.59178],[-124.18713,41.58897],[-124.18834,41.574],[-124.18499,41.56577],[-124.17996,41.55833],[-124.17227,41.55098],[-124.16049,41.54341],[-124.16011,41.52939],[-124.15794,41.51896],[-124.15182,41.50821],[-124.1513,41.49984],[-124.14413,41.48688],[-124.1365,41.46427],[-124.13691,41.44682],[-124.13323,41.43231],[-124.13997,41.38182],[-124.15419,41.38763],[-124.17656,41.39035],[-124.1886,41.38927],[-124.20651,41.38472],[-124.21922,41.3783],[-124.23109,41.36886],[-124.23819,41.35871],[-124.24242,41.3433],[-124.24216,41.33262],[-124.23821,41.32145],[-124.23139,41.31231],[-124.22003,41.30299],[-124.20492,41.29557],[-124.19233,41.29199],[-124.17798,41.29122],[-124.1634,41.29317],[-124.1607,41.28929],[-124.17332,41.261],[-124.17637,41.23715],[-124.18779,41.20956],[-124.19553,41.18458],[-124.20669,41.18241],[-124.21942,41.17769],[-124.23763,41.16596],[-124.24724,41.15282],[-124.25247,41.13407],[-124.24916,41.12016],[-124.25064,41.11029],[-124.24959,41.09903],[-124.24743,41.09222],[-124.23957,41.08286],[-124.23721,41.07384],[-124.2312,41.0655],[-124.22993,41.05461],[-124.22708,41.04662],[-124.2151,41.03142],[-124.21234,41.0238],[-124.20498,41.01364],[-124.19639,41.00753],[-124.18269,41.00131],[-124.19762,40.95053],[-124.21496,40.9064],[-124.23262,40.86929],[-124.24631,40.84696],[-124.28018,40.79993],[-124.28658,40.7959],[-124.29266,40.78809],[-124.29699,40.78096],[-124.29933,40.76848],[-124.32742,40.72772],[-124.3429,40.70883],[-124.36888,40.66971],[-124.40337,40.61317],[-124.42719,40.56208],[-124.44768,40.52971],[-124.45187,40.51561],[-124.45256,40.49308],[-124.45892,40.4792],[-124.47589,40.45976],[-124.47916,40.45264],[-124.482,40.44032],[-124.48054,40.42849],[-124.47862,40.4221],[-124.47244,40.41282],[-124.44471,40.37641],[-124.42946,40.36491],[-124.42806,40.36178],[-124.42795,40.33882],[-124.41854,40.31875],[-124.41828,40.31429],[-124.4279,40.2888],[-124.42915,40.26692],[-124.42822,40.25812],[-124.42673,40.24986],[-124.42129,40.2371],[-124.41103,40.22527],[-124.39278,40.2098],[-124.37925,40.20287],[-124.36867,40.19323],[-124.33369,40.16717],[-124.30993,40.15361],[-124.28783,40.13768],[-124.2721,40.13365],[-124.25771,40.12151],[-124.2312,40.09338],[-124.21795,40.08645],[-124.16892,40.07038],[-124.15376,40.06354],[-124.1441,40.0524],[-124.14543,40.029],[-124.14411,40.01817],[-124.14109,40.01097],[-124.13325,39.99987],[-124.12277,39.98874],[-124.10858,39.97884],[-124.09638,39.97502],[-124.0786,39.97226],[-124.04769,39.94096],[-124.03536,39.93107],[-124.0162,39.9074],[-124.00964,39.89375],[-124.00545,39.88929],[-123.98295,39.87678],[-123.97348,39.85356],[-123.9536,39.82699],[-123.93859,39.81494],[-123.91053,39.79957],[-123.90097,39.78047],[-123.90402,39.75708],[-123.89574,39.71141],[-123.89037,39.70001],[-123.88031,39.68909],[-123.85718,39.67469],[-123.856,39.65705],[-123.85192,39.64276],[-123.85343,39.60355],[-123.85252,39.59237],[-123.84939,39.57829],[-123.83965,39.55647],[-123.83465,39.54919],[-123.85265,39.51485],[-123.85714,39.51414],[-123.86783,39.5083],[-123.87252,39.50239],[-123.87513,39.49418],[-123.87438,39.48256],[-123.8874,39.45304],[-123.88889,39.44394],[-123.88927,39.43462],[-123.8871,39.42576],[-123.89245,39.40704],[-123.89045,39.3901],[-123.89587,39.3801],[-123.89681,39.37489],[-123.89434,39.35692],[-123.89494,39.34835],[-123.89308,39.33749],[-123.88642,39.32503],[-123.88102,39.31935],[-123.8816,39.31021],[-123.88018,39.3042],[-123.87613,39.29045],[-123.87021,39.28066],[-123.86341,39.25476],[-123.85009,39.2314],[-123.84602,39.1998],[-123.84013,39.19021],[-123.84077,39.18733],[-123.80921,39.14104],[-123.80746,39.12723],[-123.78611,39.09214],[-123.77831,39.06973],[-123.77264,39.06319],[-123.76834,39.05029],[-123.76197,39.04109],[-123.76118,39.01505],[-123.76315,39.00869],[-123.77661,39.00502],[-123.78542,38.99991],[-123.79722,38.98986],[-123.80607,38.97704],[-123.80986,38.96122],[-123.80651,38.94046],[-123.79845,38.92747],[-123.78468,38.89373],[-123.76713,38.8779],[-123.73792,38.85744],[-123.7253,38.84412],[-123.71781,38.82792],[-123.70651,38.81772],[-123.6926,38.81032],[-123.6827,38.79701],[-123.66004,38.78426],[-123.65265,38.77497],[-123.64125,38.76439],[-123.62612,38.75465],[-123.6152,38.74991],[-123.60706,38.74857],[-123.59196,38.74023],[-123.58691,38.72808],[-123.578,38.71758],[-123.56609,38.70902],[-123.54946,38.70014],[-123.53189,38.69342],[-123.51058,38.68089],[-123.49867,38.66894],[-123.49508,38.66066],[-123.48854,38.65147],[-123.47737,38.64223],[-123.47052,38.63858],[-123.45616,38.61479],[-123.44839,38.60629],[-123.43049,38.59167],[-123.42539,38.58284],[-123.39416,38.55394],[-123.38457,38.53702],[-123.36093,38.5102],[-123.34853,38.50424],[-123.33092,38.50242],[-123.33073,38.49991],[-123.32381,38.49861],[-123.31735,38.48864],[-123.30674,38.47868],[-123.28969,38.46758],[-123.26919,38.45757],[-123.25112,38.45208],[-123.23639,38.45043],[-123.22801,38.44423],[-123.22022,38.44195],[-123.20407,38.4239],[-123.19616,38.41011],[-123.18846,38.40286],[-123.17171,38.39408],[-123.16476,38.38834],[-123.15985,38.37492],[-123.15574,38.3684],[-123.13431,38.34579],[-123.141,38.32745],[-123.14133,38.31134],[-123.13452,38.29626],[-123.12377,38.28579],[-123.11959,38.2771],[-123.11097,38.26726],[-123.10096,38.26136],[-123.04962,38.21429],[-123.04582,38.20493],[-123.03894,38.19753],[-123.0379,38.19249],[-123.03134,38.18146],[-123.03048,38.17246],[-123.02721,38.16417],[-123.01482,38.14913],[-123.0237,38.12492],[-123.0638,38.03649],[-123.0747,38.0272],[-123.0812,38.01897],[-123.08513,38.00843],[-123.08388,37.98337],[-123.07939,37.97194],[-123.06797,37.95867],[-123.05008,37.94802],[-123.02251,37.94206],[-122.97643,37.94015],[-122.95322,37.94109],[-122.93193,37.94667],[-122.91917,37.95484],[-122.90924,37.96464],[-122.90228,37.97739],[-122.88929,37.97411],[-122.87906,37.96658],[-122.8761,37.96634],[-122.85046,37.94559],[-122.84213,37.92332],[-122.8298,37.91033],[-122.81413,37.90108],[-122.78903,37.89376],[-122.78547,37.88528],[-122.77914,37.87613],[-122.76677,37.8658],[-122.75247,37.8577],[-122.74026,37.85517],[-122.73067,37.85006],[-122.71585,37.84563],[-122.70468,37.8443],[-122.69199,37.84501],[-122.67565,37.84852],[-122.66742,37.84173],[-122.64316,37.83045],[-122.63247,37.82781],[-122.62611,37.8216],[-122.61229,37.81522],[-122.58817,37.78936],[-122.58473,37.77916],[-122.58128,37.7602],[-122.5675,37.63919],[-122.58645,37.59253],[-122.58818,37.57941],[-122.58645,37.56191],[-122.57956,37.54587],[-122.57278,37.48918],[-122.56809,37.47921],[-122.547,37.45786],[-122.53734,37.45074],[-122.5276,37.4461],[-122.50989,37.44155],[-122.50773,37.42271],[-122.50354,37.4119],[-122.48745,37.38833],[-122.46701,37.34989],[-122.46587,37.34124],[-122.48177,37.27109],[-122.48405,37.24994],[-122.4817,37.22915],[-122.47907,37.22168],[-122.47223,37.21221],[-122.46805,37.18796],[-122.46412,37.17785],[-122.45543,37.1666],[-122.44563,37.15004],[-122.42847,37.13775],[-122.42135,37.13508],[-122.41336,37.12179],[-122.4044,37.11393],[-122.39692,37.10989],[-122.39688,37.10276],[-122.39313,37.08716],[-122.38574,37.07589],[-122.37609,37.06565],[-122.36,37.05839],[-122.34821,37.05567],[-122.33641,37.05386],[-122.3139,37.05476],[-122.29031,37.03209],[-122.27637,37.02483],[-122.26565,37.00012],[-122.26105,36.99345],[-122.25108,36.98583],[-122.20932,36.96161],[-122.17202,36.94268],[-122.13057,36.92534],[-122.10304,36.91626],[-122.0764,36.9102],[-122.06832,36.87495],[-122.00112,36.6477],[-122.01417,36.63668],[-122.01935,36.62776],[-122.02013,36.6228],[-122.03425,36.60967],[-122.04073,36.60012],[-122.04415,36.59135],[-122.04405,36.57825],[-122.03746,36.56038],[-122.02903,36.5485],[-122.01746,36.53741],[-122.02052,36.53192],[-122.02271,36.52223],[-122.022,36.50891],[-122.00897,36.47533],[-121.99947,36.46645],[-122.00084,36.45568],[-121.99712,36.441],[-121.99292,36.4334],[-121.98104,36.41963],[-121.97564,36.39257],[-121.97039,36.38337],[-121.97229,36.37285],[-121.97188,36.35783],[-121.96736,36.33417],[-121.96287,36.32273],[-121.96461,36.30698],[-121.96318,36.29877],[-121.95767,36.28512],[-121.9442,36.2696],[-121.93066,36.25956],[-121.92036,36.25505],[-121.91127,36.24876],[-121.90116,36.23965],[-121.89352,36.22429],[-121.88019,36.21031],[-121.8464,36.19034],[-121.83168,36.18459],[-121.80235,36.1783],[-121.78797,36.16847],[-121.77069,36.16201],[-121.74733,36.14599],[-121.73811,36.13578],[-121.72781,36.12901],[-121.70872,36.1026],[-121.67436,36.06466],[-121.64818,35.99862],[-121.63182,35.97894],[-121.62037,35.96911],[-121.58928,35.95927],[-121.56146,35.94382],[-121.54183,35.90166],[-121.53201,35.8848],[-121.51919,35.8634],[-121.50105,35.84274],[-121.48161,35.82935],[-121.4561,35.81771],[-121.45063,35.80978],[-121.4285,35.78591],[-121.39975,35.76534],[-121.39346,35.7634],[-121.39374,35.74997],[-121.38563,35.73369],[-121.37933,35.72696],[-121.37715,35.71647],[-121.37896,35.70603],[-121.36636,35.68042],[-121.34772,35.66498],[-121.3456,35.65596],[-121.33964,35.64243],[-121.32351,35.62497],[-121.30998,35.6171],[-121.28604,35.60844],[-121.27042,35.60648],[-121.25981,35.60176],[-121.24659,35.60036],[-121.23181,35.59404],[-121.22012,35.58687],[-121.20156,35.58369],[-121.1877,35.56908],[-121.17776,35.56125],[-121.15106,35.51641],[-121.12827,35.49561],[-121.11817,35.4906],[-121.11121,35.48132],[-121.10014,35.47088],[-121.09224,35.46667],[-121.08295,35.45564],[-121.06906,35.44725],[-121.05231,35.42855],[-121.04164,35.41999],[-121.015,35.41063],[-121.00556,35.4095],[-120.98963,35.41114],[-120.97683,35.40356],[-120.95967,35.39649],[-120.93329,35.39275],[-120.92829,35.38684],[-120.93024,35.38309],[-120.9308,35.37497],[-120.92828,35.36096],[-120.92344,35.34841],[-120.9286,35.33071],[-120.95333,35.28485],[-120.95938,35.26544],[-120.96125,35.24997],[-120.96025,35.24362],[-120.94903,35.22102],[-120.94386,35.21378],[-120.93735,35.20805],[-120.9302,35.20463],[-120.92792,35.19943],[-120.91779,35.18738],[-120.89684,35.17134],[-120.87601,35.15972],[-120.8717,35.15371],[-120.85693,35.14281],[-120.83942,35.13465],[-120.83059,35.13187],[-120.82199,35.13144],[-120.80839,35.12055],[-120.80041,35.11658],[-120.78292,35.11198],[-120.75243,35.10946],[-120.7385,35.10964],[-120.7255,35.11358],[-120.70709,35.10429],[-120.68961,35.09883],[-120.6878,35.07749],[-120.69166,35.06036],[-120.69471,35.02884],[-120.71444,34.96354],[-120.72026,34.95629],[-120.72675,34.94381],[-120.72851,34.93165],[-120.72723,34.92332],[-120.73342,34.91016],[-120.73438,34.9015],[-120.73068,34.88643],[-120.72032,34.86924],[-120.71297,34.8629],[-120.6956,34.85458],[-120.6841,34.84453],[-120.67328,34.83862],[-120.68442,34.80366],[-120.69289,34.78266],[-120.6998,34.77086],[-120.70223,34.76022],[-120.70209,34.74833],[-120.69828,34.73783],[-120.69323,34.73004],[-120.68466,34.72108],[-120.67731,34.70974],[-120.66584,34.69943],[-120.66469,34.69634],[-120.68648,34.64502],[-120.70128,34.63001],[-120.70531,34.62141],[-120.70837,34.60985],[-120.70709,34.5975],[-120.71213,34.5842],[-120.71333,34.57496],[-120.71276,34.5683],[-120.70645,34.55191],[-120.68221,34.52533],[-120.65606,34.5086],[-120.64236,34.50377],[-120.60948,34.50191],[-120.59433,34.50407],[-120.58151,34.49663],[-120.55944,34.48847],[-120.5531,34.47101],[-120.54459,34.46022],[-120.53566,34.4527],[-120.53557,34.43952],[-120.52365,34.4195],[-120.501,34.40314],[-120.48809,34.39828],[-120.47522,34.39666],[-120.45602,34.39148],[-120.44364,34.39196],[-120.42603,34.39674],[-120.40853,34.39865],[-120.39059,34.4033],[-120.38692,34.40565],[-120.36733,34.40849],[-120.34887,34.40732],[-120.34,34.40942],[-120.32451,34.40975],[-120.28713,34.41761],[-120.28022,34.4163],[-120.2406,34.41746],[-120.20283,34.42221],[-120.19175,34.41999],[-120.16364,34.42036],[-120.14728,34.42292],[-120.13512,34.42206],[-120.10831,34.41289],[-120.09067,34.40929],[-120.07644,34.41112],[-120.05679,34.40994],[-120.04481,34.41245],[-120.03614,34.40995],[-120.02436,34.40934],[-120.00942,34.40154],[-119.92339,34.37345],[-119.91653,34.37261],[-119.90542,34.36437],[-119.89152,34.35746],[-119.87597,34.35564],[-119.8659,34.35719],[-119.85527,34.35433],[-119.83792,34.35432],[-119.82315,34.35705],[-119.80581,34.36534],[-119.79707,34.36533],[-119.73202,34.3397],[-119.71613,34.33611],[-119.69778,34.34087],[-119.66611,34.35446],[-119.65136,34.36671],[-119.62596,34.36622],[-119.61746,34.36873],[-119.60206,34.36365],[-119.59029,34.36121],[-119.58479,34.36166],[-119.57454,34.35382],[-119.55583,34.34502],[-119.54785,34.34436],[-119.53265,34.33877],[-119.52792,34.33877],[-119.52291,34.33592],[-119.51947,34.33607],[-119.50095,34.32692],[-119.48422,34.30678],[-119.46699,34.29366],[-119.44898,34.28469],[-119.42862,34.27778],[-119.40199,34.27226],[-119.38633,34.25707],[-119.37594,34.24988],[-119.35073,34.24014],[-119.33489,34.23687],[-119.32865,34.22691],[-119.29757,34.16032],[-119.28574,34.1408],[-119.26773,34.12125],[-119.25094,34.1062],[-119.21799,34.06249],[-119.15896,34.04025],[-119.1168,34.02982],[-119.02741,34.01492],[-119.00042,34.00747],[-118.98531,34.00001],[-118.96403,33.99675],[-118.95243,33.99296],[-118.8873,33.98722],[-118.874,33.98331],[-118.85685,33.96597],[-118.84112,33.95537],[-118.82938,33.95039],[-118.81475,33.94721],[-118.80361,33.94724],[-118.78653,33.95143],[-118.75441,33.96779],[-118.74639,33.9755],[-118.73553,33.97704],[-118.72746,33.98031],[-118.70457,33.97784],[-118.68914,33.97995],[-118.68081,33.97916],[-118.66651,33.98056],[-118.64835,33.98673],[-118.60439,33.98628],[-118.59408,33.98807],[-118.58658,33.98701],[-118.56969,33.98881],[-118.55736,33.98767],[-118.54842,33.97997],[-118.53347,33.96179],[-118.52345,33.95305],[-118.50863,33.93252],[-118.50091,33.91862],[-118.47682,33.88951],[-118.44725,33.84876],[-118.44397,33.83906],[-118.45054,33.83227],[-118.46915,33.81868],[-118.48448,33.80315],[-118.48777,33.77987],[-118.48558,33.75366],[-118.46696,33.72552],[-118.42864,33.70127],[-118.38593,33.68671],[-118.37717,33.67895],[-118.34541,33.66343],[-118.31913,33.65955],[-118.27424,33.66343],[-118.25453,33.67507],[-118.23701,33.69059],[-118.16583,33.69156],[-118.1259,33.69715],[-118.09647,33.65365],[-118.07507,33.63961],[-118.04985,33.62001],[-118.03361,33.60935],[-118.00088,33.59317],[-117.93405,33.54925],[-117.81636,33.49087],[-117.81128,33.48202],[-117.79326,33.46978],[-117.79048,33.46124],[-117.76514,33.43154],[-117.74141,33.41012],[-117.73534,33.40744],[-117.71357,33.40878],[-117.6538,33.36482],[-117.64786,33.36363],[-117.6362,33.34913],[-117.62588,33.34211],[-117.57153,33.3123],[-117.521,33.26887],[-117.50088,33.24215],[-117.46787,33.21249],[-117.43556,33.17751],[-117.37587,33.07522],[-117.32328,32.90306],[-117.33264,32.88216],[-117.33966,32.85917],[-117.342,32.84035],[-117.3303,32.80482],[-117.32562,32.73165],[-117.32094,32.68985],[-117.30924,32.6564],[-117.29754,32.64177],[-117.27692,32.62347],[-117.26879,32.61941],[-117.25509,32.61547],[-117.24679,32.61485],[-117.23351,32.61668],[-117.2233,32.62124],[-117.2182,32.61029],[-117.21411,32.59478],[-117.21003,32.57288],[-117.21003,32.55463],[-117.20505,32.52951],[-117.12466,32.53427],[-116.43941,32.59178],[-115.81716,32.64083],[-115.36866,32.67411],[-114.7195,32.71874],[-114.71452,32.73039],[-114.70158,32.74563],[-114.68823,32.73753],[-114.6174,32.72826],[-114.61567,32.72845],[-114.61511,32.73452],[-114.58178,32.73495],[-114.58174,32.74232],[-114.56451,32.74227],[-114.56445,32.74955],[-114.53922,32.74981],[-114.53909,32.75695],[-114.52686,32.75709],[-114.52844,32.76728],[-114.53243,32.77692],[-114.53167,32.79119],[-114.52963,32.79548],[-114.52203,32.80167],[-114.51033,32.81649],[-114.49412,32.82329],[-114.46897,32.84516],[-114.46293,32.90794],[-114.46445,32.91313],[-114.47664,32.92363],[-114.48092,32.93628],[-114.47077,32.94942],[-114.46806,32.95526],[-114.46732,32.96406],[-114.4686,32.97165],[-114.47051,32.97386],[-114.47539,32.97516],[-114.48862,32.96995],[-114.49294,32.97178],[-114.4998,33.0039],[-114.50287,33.01115],[-114.51134,33.02345],[-114.52013,33.02998],[-114.53846,33.03342],[-114.57516,33.03654],[-114.57937,33.03456],[-114.58477,33.02823],[-114.58978,33.02623],[-114.60101,33.02541],[-114.61879,33.0272],[-114.62829,33.03105],[-114.63955,33.04529],[-114.64598,33.0489],[-114.649,33.04676],[-114.65783,33.03382],[-114.66232,33.03267],[-114.66506,33.03391],[-114.67366,33.0419],[-114.6751,33.04753],[-114.6743,33.05717],[-114.68699,33.07097],[-114.68912,33.07612],[-114.68902,33.08404],[-114.70649,33.08816],[-114.7079,33.09743],[-114.70368,33.11377],[-114.69691,33.13112],[-114.6874,33.14198],[-114.67994,33.15906],[-114.68089,33.16907],[-114.67536,33.18549],[-114.67875,33.20345],[-114.67363,33.22312],[-114.68954,33.24643],[-114.67449,33.2556],[-114.67209,33.2585],[-114.67703,33.27017],[-114.68051,33.27358],[-114.69445,33.27979],[-114.72167,33.28698],[-114.73122,33.30243],[-114.7299,33.30574],[-114.72362,33.31211],[-114.70787,33.32332],[-114.70094,33.33701],[-114.69804,33.35244],[-114.69906,33.36115],[-114.70735,33.37663],[-114.70731,33.38254],[-114.72425,33.40042],[-114.72528,33.40505],[-114.72007,33.40789],[-114.70179,33.40838],[-114.69771,33.41094],[-114.69566,33.41513],[-114.68795,33.41793],[-114.67369,33.41916],[-114.65673,33.41281],[-114.64954,33.41363],[-114.63518,33.42272],[-114.62748,33.43231],[-114.62228,33.44756],[-114.62292,33.45656],[-114.61247,33.47077],[-114.60169,33.4814],[-114.59237,33.49868],[-114.58047,33.50647],[-114.56953,33.50922],[-114.56096,33.51674],[-114.5589,33.53182],[-114.52422,33.55307],[-114.52822,33.55932],[-114.53161,33.5617],[-114.53678,33.57096],[-114.5403,33.58062],[-114.54062,33.59141],[-114.52919,33.60665],[-114.52184,33.61254],[-114.53121,33.62391],[-114.53103,33.62821],[-114.52637,33.63026],[-114.5238,33.6347],[-114.52539,33.64067],[-114.53321,33.64844],[-114.53319,33.65166],[-114.53058,33.65446],[-114.51834,33.65593],[-114.51456,33.65801],[-114.51406,33.66018],[-114.51711,33.66288],[-114.52644,33.66388],[-114.53027,33.66682],[-114.53212,33.6697],[-114.53152,33.67511],[-114.53035,33.67924],[-114.52396,33.68588],[-114.49649,33.6969],[-114.4942,33.70792],[-114.49657,33.71915],[-114.50079,33.7222],[-114.50418,33.72805],[-114.51235,33.73421],[-114.50448,33.751],[-114.50486,33.76047],[-114.51673,33.78835],[-114.51894,33.7973],[-114.52805,33.81496],[-114.52271,33.81898],[-114.51997,33.82538],[-114.5296,33.84806],[-114.52988,33.85756],[-114.52429,33.86013],[-114.51467,33.85864],[-114.50564,33.86428],[-114.50302,33.868],[-114.50434,33.87688],[-114.52277,33.89258],[-114.52587,33.90101],[-114.51371,33.89796],[-114.50871,33.90064],[-114.50792,33.90381],[-114.51151,33.91109],[-114.51843,33.91752],[-114.52536,33.92227],[-114.53495,33.9257],[-114.53568,33.93355],[-114.52868,33.94782],[-114.52273,33.95504],[-114.51586,33.95811],[-114.50875,33.9575],[-114.49988,33.96179],[-114.48478,33.97552],[-114.48146,33.98126],[-114.47114,33.98804],[-114.46793,33.99288],[-114.45926,33.99471],[-114.45803,33.99716],[-114.45918,34.00002],[-114.46731,34.00519],[-114.46587,34.01099],[-114.46334,34.01226],[-114.45481,34.01097],[-114.45021,34.01257],[-114.44382,34.01618],[-114.43827,34.02261],[-114.43495,34.03778],[-114.43934,34.05789],[-114.43418,34.08738],[-114.42803,34.09279],[-114.4205,34.10347],[-114.41168,34.11003],[-114.40134,34.11164],[-114.39057,34.11008],[-114.37922,34.11599],[-114.36652,34.11858],[-114.3604,34.12358],[-114.35303,34.13312],[-114.34805,34.13446],[-114.33611,34.13403],[-114.32078,34.13863],[-114.31221,34.14478],[-114.29281,34.16672],[-114.28729,34.17053],[-114.27527,34.17215],[-114.26846,34.17018],[-114.25703,34.17284],[-114.24442,34.1794],[-114.24071,34.18323],[-114.22972,34.18693],[-114.22703,34.18887],[-114.22494,34.1939],[-114.22519,34.20364],[-114.21176,34.21154],[-114.19088,34.23086],[-114.17805,34.23997],[-114.1746,34.2473],[-114.16612,34.25001],[-114.16387,34.25335],[-114.16465,34.2597],[-114.15335,34.25829],[-114.14478,34.25962],[-114.13545,34.25789],[-114.13149,34.26039],[-114.13121,34.26273],[-114.13667,34.27438],[-114.13605,34.28083],[-114.13953,34.29584],[-114.13828,34.30323],[-114.15721,34.31786],[-114.16881,34.33951],[-114.17691,34.34931],[-114.19948,34.36137],[-114.21377,34.36246],[-114.22611,34.36592],[-114.22969,34.36891],[-114.23427,34.37666],[-114.25274,34.3901],[-114.26432,34.40133],[-114.28011,34.40315],[-114.28866,34.40662],[-114.29175,34.4111],[-114.29223,34.41761],[-114.29484,34.42139],[-114.30102,34.42681],[-114.31225,34.43273],[-114.32613,34.43725],[-114.33067,34.4453],[-114.33537,34.45004],[-114.34262,34.45144],[-114.37372,34.44694],[-114.3867,34.45791],[-114.38719,34.46202],[-114.3817,34.47604],[-114.38236,34.49576],[-114.37812,34.50729],[-114.37822,34.51652],[-114.38084,34.52972],[-114.40523,34.56964],[-114.42238,34.58071],[-114.43681,34.59607],[-114.42534,34.60084],[-114.4242,34.61045],[-114.43874,34.62146],[-114.4414,34.63017],[-114.44029,34.63824],[-114.44146,34.64253],[-114.44955,34.65142],[-114.45798,34.65711],[-114.4577,34.65933],[-114.45179,34.66389],[-114.45051,34.66684],[-114.45431,34.67123],[-114.45554,34.67734],[-114.46525,34.6912],[-114.47048,34.71137],[-114.47368,34.71396],[-114.48278,34.71451],[-114.48751,34.71663],[-114.49202,34.7257],[-114.51662,34.73674],[-114.52961,34.75082],[-114.55268,34.76687],[-114.55865,34.77385],[-114.57101,34.79429],[-114.57645,34.8153],[-114.58684,34.83567],[-114.60065,34.84736],[-114.62394,34.85974],[-114.63062,34.86636],[-114.63438,34.87289],[-114.63672,34.88911],[-114.63088,34.90726],[-114.63325,34.92461],[-114.62977,34.94304],[-114.63495,34.95892],[-114.63524,34.96515],[-114.62913,34.98613],[-114.62944,34.99182],[-114.63349,35.00186],[-114.79734,35.13493],[-115.10096,35.37568],[-115.25972,35.50354],[-115.69544,35.84626],[-116.09417,36.15626],[-116.48823,36.4591],[-116.87425,36.75208],[-117.50012,37.22038],[-117.58142,37.27894],[-117.68061,37.3534],[-117.71236,37.37493],[-117.87593,37.49727],[-117.90463,37.51584],[-118.05219,37.62493],[-118.7142,38.1021],[-119.12598,38.39317],[-119.45382,38.62243],[-120.00101,38.99957],[-120.00647,39.27288],[-120.00613,39.37411],[-120.00291,39.4644],[-120.00082,39.60683],[-120.00113,39.75223],[-119.99771,39.99991],[-119.99571,40.37583],[-119.99598,40.57055],[-119.99878,40.77385],[-119.99987,41.18397]]],[[[-119.49229,33.98321],[-119.47265,33.97065],[-119.43296,33.9559],[-119.417,33.95377],[-119.41134,33.95541],[-119.40293,33.95379],[-119.38046,33.95361],[-119.36283,33.95876],[-119.35186,33.96445],[-119.33279,33.96772],[-119.31161,33.98002],[-119.30409,33.98654],[-119.29624,33.99724],[-119.29311,34.02015],[-119.2944,34.0275],[-119.29764,34.03658],[-119.30515,34.04745],[-119.31209,34.05439],[-119.32115,34.06061],[-119.34246,34.06896],[-119.35639,34.07081],[-119.36788,34.07042],[-119.39701,34.06379],[-119.40935,34.06679],[-119.43732,34.06772],[-119.46784,34.06293],[-119.47731,34.07183],[-119.48875,34.0792],[-119.49749,34.08275],[-119.51211,34.09346],[-119.53842,34.10541],[-119.55743,34.1086],[-119.59056,34.10564],[-119.61427,34.09943],[-119.64517,34.08005],[-119.65493,34.07122],[-119.69301,34.09485],[-119.70946,34.10066],[-119.72597,34.10209],[-119.75098,34.11258],[-119.76903,34.11194],[-119.7926,34.10637],[-119.82922,34.1187],[-119.85209,34.12096],[-119.87598,34.12623],[-119.89418,34.12577],[-119.90558,34.12935],[-119.9288,34.1299],[-119.94784,34.125],[-119.96547,34.11256],[-119.97236,34.10335],[-119.97439,34.09674],[-119.98195,34.08938],[-119.99164,34.06487],[-120.00096,34.07682],[-120.00096,34.07867],[-120.01021,34.08404],[-120.0195,34.08772],[-120.04515,34.09061],[-120.06333,34.08971],[-120.08028,34.0864],[-120.10292,34.07449],[-120.12013,34.07894],[-120.13501,34.07881],[-120.17113,34.07332],[-120.18546,34.06622],[-120.19411,34.05872],[-120.19758,34.05815],[-120.21038,34.06085],[-120.22488,34.06131],[-120.25285,34.05803],[-120.27158,34.07414],[-120.27428,34.0818],[-120.28465,34.09475],[-120.29779,34.10412],[-120.31171,34.10951],[-120.32109,34.11045],[-120.32434,34.1138],[-120.33856,34.12169],[-120.34271,34.1315],[-120.35049,34.14145],[-120.35516,34.14502],[-120.36875,34.15104],[-120.39194,34.15671],[-120.41879,34.16057],[-120.43272,34.15748],[-120.44907,34.15059],[-120.47165,34.1341],[-120.48143,34.14217],[-120.49738,34.14989],[-120.51604,34.1528],[-120.53812,34.15034],[-120.561,34.14066],[-120.56785,34.13562],[-120.57509,34.12647],[-120.58226,34.10752],[-120.58155,34.09149],[-120.57381,34.07597],[-120.567,34.06864],[-120.55005,34.05729],[-120.53106,34.05169],[-120.52339,34.05113],[-120.52645,34.04146],[-120.52585,34.03299],[-120.52314,34.02282],[-120.51878,34.01408],[-120.5062,34.0],[-120.50099,33.9963],[-120.49773,33.9912],[-120.48815,33.98428],[-120.48077,33.98026],[-120.46678,33.97612],[-120.44619,33.97737],[-120.43218,33.9747],[-120.41177,33.97705],[-120.39564,33.96743],[-120.36707,33.96104],[-120.34687,33.96349],[-120.33225,33.96843],[-120.31739,33.96637],[-120.29897,33.96846],[-120.28003,33.95394],[-120.2731,33.92958],[-120.26449,33.91892],[-120.25097,33.90844],[-120.23872,33.90411],[-120.22113,33.88419],[-120.19951,33.875],[-120.19339,33.86853],[-120.18822,33.86636],[-120.183,33.86629],[-120.17032,33.85742],[-120.15708,33.85343],[-120.14955,33.84796],[-120.12596,33.84235],[-120.10409,33.8424],[-120.09045,33.84632],[-120.07065,33.85649],[-120.04791,33.86359],[-120.03454,33.86448],[-120.02781,33.86651],[-120.01934,33.87055],[-120.01541,33.87515],[-120.00096,33.88525],[-119.98084,33.89232],[-119.96268,33.89244],[-119.95029,33.89438],[-119.93919,33.89864],[-119.91893,33.91435],[-119.91102,33.9239],[-119.90476,33.93967],[-119.89624,33.93574],[-119.86195,33.91084],[-119.84744,33.90423],[-119.83442,33.90079],[-119.82321,33.89939],[-119.81022,33.90132],[-119.78937,33.91013],[-119.77832,33.91061],[-119.77283,33.91241],[-119.75856,33.9108],[-119.74134,33.91262],[-119.73142,33.91027],[-119.70749,33.91039],[-119.6876,33.91564],[-119.63673,33.93828],[-119.62596,33.93604],[-119.60208,33.93677],[-119.59069,33.93958],[-119.57245,33.94114],[-119.56329,33.94495],[-119.55047,33.94495],[-119.53895,33.94766],[-119.52331,33.95493],[-119.51224,33.9622],[-119.50095,33.97148],[-119.49229,33.98321]]],[[[-119.63382,33.28932],[-119.6363,33.27304],[-119.63105,33.25549],[-119.63128,33.24497],[-119.62519,33.23247],[-119.61992,33.22683],[-119.61481,33.21725],[-119.60528,33.20692],[-119.57419,33.18648],[-119.55319,33.18126],[-119.512,33.16776],[-119.49142,33.16701],[-119.47649,33.16349],[-119.44497,33.16527],[-119.43372,33.16699],[-119.39454,33.18084],[-119.37594,33.19219],[-119.36845,33.2026],[-119.3607,33.22145],[-119.36013,33.23487],[-119.36212,33.24522],[-119.37594,33.26476],[-119.37973,33.26763],[-119.43,33.30103],[-119.49512,33.32715],[-119.51914,33.3337],[-119.52965,33.33522],[-119.54354,33.33416],[-119.56493,33.32764],[-119.58268,33.32779],[-119.59922,33.32328],[-119.61453,33.3148],[-119.62594,33.30504],[-119.63382,33.28932]]],[[[-123.17383,37.77573],[-123.17293,37.7636],[-123.16998,37.75593],[-123.16275,37.74353],[-123.15676,37.73784],[-123.1326,37.71939],[-123.12611,37.71673],[-123.10492,37.71265],[-123.09285,37.71369],[-123.08606,37.70075],[-123.07492,37.69007],[-123.06859,37.67304],[-123.05358,37.65865],[-123.0407,37.65033],[-123.01161,37.64151],[-123.00111,37.64177],[-123.00111,37.63983],[-122.98675,37.64178],[-122.97301,37.64658],[-122.96301,37.65198],[-122.94907,37.66338],[-122.94136,37.67658],[-122.93571,37.69762],[-122.93586,37.70246],[-122.94229,37.72106],[-122.94998,37.73219],[-122.9641,37.74428],[-122.97326,37.74865],[-122.98143,37.75892],[-122.99754,37.77078],[-123.01059,37.77493],[-123.03384,37.77838],[-123.03873,37.78888],[-123.04882,37.79982],[-123.07049,37.81383],[-123.09526,37.82188],[-123.11829,37.82306],[-123.13227,37.81968],[-123.14721,37.81195],[-123.16601,37.79689],[-123.16911,37.79237],[-123.17383,37.77573]]],[[[-119.11166,33.51547],[-119.11895,33.50002],[-119.10721,33.50002],[-119.10965,33.46229],[-119.10888,33.45115],[-119.10615,33.44501],[-119.09413,33.42687],[-119.07189,33.4138],[-119.05307,33.41102],[-119.02704,33.41287],[-119.00952,33.41677],[-119.00093,33.4213],[-119.00093,33.41849],[-118.98873,33.42344],[-118.97848,33.43111],[-118.96375,33.46683],[-118.96276,33.48521],[-118.96602,33.50002],[-118.97101,33.51066],[-118.98215,33.52426],[-119.00093,33.5359],[-119.03074,33.54012],[-119.05655,33.53603],[-119.06616,33.53671],[-119.0765,33.53515],[-119.09049,33.5303],[-119.10421,33.52289],[-119.11166,33.51547]]],[[[-118.6682,33.48594],[-118.66592,33.46733],[-118.66175,33.45632],[-118.65506,33.44531],[-118.63073,33.4232],[-118.62592,33.41426],[-118.61857,33.40619],[-118.60723,33.39829],[-118.59108,33.39087],[-118.5732,33.38348],[-118.55338,33.38023],[-118.54793,33.3768],[-118.55119,33.36935],[-118.54748,33.34048],[-118.53488,33.31518],[-118.51039,33.28966],[-118.48669,33.27691],[-118.45507,33.26902],[-118.43765,33.26702],[-118.41205,33.26628],[-118.40256,33.26794],[-118.38559,33.26536],[-118.38149,33.2623],[-118.36331,33.25507],[-118.34377,33.25003],[-118.32799,33.24808],[-118.30284,33.25101],[-118.2807,33.25909],[-118.25918,33.2725],[-118.2509,33.28047],[-118.24908,33.28414],[-118.2427,33.30311],[-118.24129,33.32302],[-118.2451,33.33834],[-118.25771,33.36413],[-118.26275,33.37044],[-118.27721,33.38074],[-118.29467,33.39759],[-118.3041,33.40363],[-118.30659,33.40716],[-118.31095,33.42514],[-118.31635,33.43414],[-118.33277,33.44804],[-118.35092,33.45782],[-118.35939,33.46492],[-118.40323,33.47927],[-118.42084,33.48178],[-118.42709,33.48716],[-118.43684,33.48944],[-118.44755,33.50002],[-118.46285,33.51043],[-118.47728,33.51543],[-118.49334,33.51573],[-118.50676,33.52491],[-118.52938,33.53118],[-118.5466,33.53084],[-118.55775,33.52833],[-118.56719,33.52948],[-118.57914,33.52841],[-118.58972,33.53198],[-118.60501,33.53221],[-118.62592,33.52898],[-118.64406,33.52128],[-118.65573,33.51082],[-118.66371,33.50002],[-118.6682,33.48594]]],[[[-118.6782,33.03973],[-118.67855,33.02636],[-118.67017,33.00003],[-118.64473,33.00003],[-118.63552,32.9656],[-118.62212,32.94143],[-118.6088,32.92769],[-118.60547,32.9182],[-118.60529,32.90854],[-118.59693,32.89047],[-118.56253,32.84944],[-118.55319,32.8288],[-118.5382,32.81277],[-118.52043,32.80196],[-118.50765,32.79688],[-118.48497,32.77916],[-118.47391,32.76682],[-118.46471,32.76018],[-118.45381,32.75511],[-118.43654,32.75004],[-118.4198,32.75004],[-118.40832,32.75191],[-118.39256,32.7585],[-118.37838,32.77023],[-118.35349,32.76581],[-118.34319,32.76706],[-118.32382,32.77351],[-118.30285,32.78885],[-118.29584,32.79826],[-118.28991,32.81053],[-118.28878,32.82083],[-118.28989,32.82938],[-118.29725,32.84509],[-118.31034,32.8595],[-118.31739,32.86376],[-118.3289,32.87504],[-118.33746,32.87975],[-118.36252,32.90012],[-118.39079,32.91784],[-118.42334,32.94648],[-118.44886,32.96175],[-118.4895,33.01063],[-118.49113,33.01792],[-118.49558,33.02634],[-118.50766,33.03788],[-118.51497,33.04989],[-118.52373,33.05997],[-118.5421,33.07379],[-118.55263,33.07863],[-118.57834,33.08624],[-118.61962,33.08672],[-118.63264,33.08454],[-118.6413,33.08188],[-118.65436,33.07495],[-118.66385,33.06685],[-118.67561,33.04935],[-118.6782,33.03973]]]]},"properties":{"name":"California","source":"US Census TIGERweb states (California)","source_url":"https://tigerweb.geo.census.gov/tigerwebmain/TIGERweb_main.html","retrieved_at":"2026-10-03T06:33:18.485284+00:00","simplified_deg":0.001}}]}
